start=new Date('2022-02-01T00:00:00.000Z').valueOf();
sats=[{"REV_AT_EPOCH":"6608","EPHEMERIS_TYPE":"0","TLE_LINE1":"1 47167U 20088AX  22031.86682936  .00000550  00000-0  55847-4 0  9992","PERIAPSIS":"545.838","LAUNCH_DATE":"2020-11-25","SEMIMAJOR_AXIS":"6925.334","APOAPSIS":"548.560","BSTAR":"0.00005584700000","MEAN_MOTION_DDOT":"0.0000000000000","RA_OF_ASC_NODE":"185.6063","RCS_SIZE":"LARGE","GP_ID":"195054104","DECAY_DATE":null,"PERIOD":"95.592","TIME_SYSTEM":"UTC","MEAN_MOTION_DOT":"0.00000550","EPOCH":"2022-01-31T20:48:14.056704","INCLINATION":"53.0534","MEAN_ELEMENT_THEORY":"SGP4","ECCENTRICITY":"0.00019650","MEAN_MOTION":"15.06404651","NORAD_CAT_ID":"47167","CENTER_NAME":"EARTH","OBJECT_NAME":"STARLINK-1884","OBJECT_TYPE":"PAYLOAD","COUNTRY_CODE":"US","ARG_OF_PERICENTER":"212.2415","OBJECT_ID":"2020-088AX","REF_FRAME":"TEME","SITE":"AFETR","TLE_LINE2":"2 47167  53.0534 185.6063 0001965 212.2415 147.8454 15.06404651 66089","MEAN_ANOMALY":"147.8454","CLASSIFICATION_TYPE":"U","FILE":"3288814","ELEMENT_SET_NO":"999"},{"MEAN_ANOMALY":"322.6546","CLASSIFICATION_TYPE":"U","FILE":"3288814","ELEMENT_SET_NO":"999","ARG_OF_PERICENTER":"37.4601","OBJECT_ID":"2020-088AY","REF_FRAME":"TEME","SITE":"AFETR","TLE_LINE2":"2 47168  53.0568 173.6234 0002043  37.4601 322.6546 15.42179470 66258","NORAD_CAT_ID":"47168","CENTER_NAME":"EARTH","OBJECT_NAME":"STARLINK-1885","OBJECT_TYPE":"PAYLOAD","COUNTRY_CODE":"US","MEAN_MOTION_DOT":"0.00000177","EPOCH":"2022-01-31T20:24:07.009632","INCLINATION":"53.0568","MEAN_ELEMENT_THEORY":"SGP4","ECCENTRICITY":"0.00020430","MEAN_MOTION":"15.42179470","GP_ID":"195054352","DECAY_DATE":null,"PERIOD":"93.374","TIME_SYSTEM":"UTC","MEAN_MOTION_DDOT":"0.0000000000000","RA_OF_ASC_NODE":"173.6234","RCS_SIZE":"LARGE","SEMIMAJOR_AXIS":"6817.815","APOAPSIS":"441.073","BSTAR":"0.00001352900000","REV_AT_EPOCH":"6625","EPHEMERIS_TYPE":"0","TLE_LINE1":"1 47168U 20088AY  22031.85008113  .00000177  00000-0  13529-4 0  9997","PERIAPSIS":"438.287","LAUNCH_DATE":"2020-11-25"},{"MEAN_ANOMALY":"275.3099","ELEMENT_SET_NO":"999","CLASSIFICATION_TYPE":"U","FILE":"3288814","ARG_OF_PERICENTER":"84.8136","OBJECT_ID":"2020-088BA","SITE":"AFETR","TLE_LINE2":"2 47170  53.0534 185.6732 0002157  84.8136 275.3099 15.06400651 66081","REF_FRAME":"TEME","CENTER_NAME":"EARTH","OBJECT_NAME":"STARLINK-1887","NORAD_CAT_ID":"47170","OBJECT_TYPE":"PAYLOAD","COUNTRY_CODE":"US","EPOCH":"2022-01-31T20:27:01.021824","MEAN_ELEMENT_THEORY":"SGP4","INCLINATION":"53.0534","MEAN_MOTION_DOT":"0.00000820","MEAN_MOTION":"15.06400651","ECCENTRICITY":"0.00021570","DECAY_DATE":null,"GP_ID":"195052603","PERIOD":"95.592","TIME_SYSTEM":"UTC","RA_OF_ASC_NODE":"185.6732","MEAN_MOTION_DDOT":"0.0000000000000","RCS_SIZE":"LARGE","SEMIMAJOR_AXIS":"6925.347","BSTAR":"0.00007398700000","APOAPSIS":"548.705","EPHEMERIS_TYPE":"0","TLE_LINE1":"1 47170U 20088BA  22031.85209516  .00000820  00000-0  73987-4 0  9999","REV_AT_EPOCH":"6608","LAUNCH_DATE":"2020-11-25","PERIAPSIS":"545.718"},{"PERIAPSIS":"546.036","LAUNCH_DATE":"2020-11-25","REV_AT_EPOCH":"6621","TLE_LINE1":"1 47171U 20088BB  22031.80509392  .00001039  00000-0  88618-4 0  9990","EPHEMERIS_TYPE":"0","APOAPSIS":"548.398","BSTAR":"0.00008861800000","SEMIMAJOR_AXIS":"6925.352","RCS_SIZE":"LARGE","MEAN_MOTION_DDOT":"0.0000000000000","RA_OF_ASC_NODE":"175.8896","TIME_SYSTEM":"UTC","PERIOD":"95.592","DECAY_DATE":null,"GP_ID":"195053353","ECCENTRICITY":"0.00017050","MEAN_MOTION":"15.06398902","MEAN_MOTION_DOT":"0.00001039","INCLINATION":"53.0539","MEAN_ELEMENT_THEORY":"SGP4","EPOCH":"2022-01-31T19:19:20.114688","COUNTRY_CODE":"US","OBJECT_TYPE":"PAYLOAD","NORAD_CAT_ID":"47171","OBJECT_NAME":"STARLINK-1888","CENTER_NAME":"EARTH","REF_FRAME":"TEME","TLE_LINE2":"2 47171  53.0539 175.8896 0001705  82.0063 278.1119 15.06398902 66210","SITE":"AFETR","OBJECT_ID":"2020-088BB","ARG_OF_PERICENTER":"82.0063","FILE":"3288814","CLASSIFICATION_TYPE":"U","ELEMENT_SET_NO":"999","MEAN_ANOMALY":"278.1119"},{"CLASSIFICATION_TYPE":"U","FILE":"3288814","ELEMENT_SET_NO":"999","MEAN_ANOMALY":"337.7942","REF_FRAME":"TEME","SITE":"AFETR","TLE_LINE2":"2 47172  53.0489 133.0543 0000938  22.3119 337.7942 15.77084420 66802","ARG_OF_PERICENTER":"22.3119","OBJECT_ID":"2020-088BC","OBJECT_TYPE":"PAYLOAD","COUNTRY_CODE":"US","NORAD_CAT_ID":"47172","CENTER_NAME":"EARTH","OBJECT_NAME":"STARLINK-1889","ECCENTRICITY":"0.00009380","MEAN_MOTION":"15.77084420","MEAN_MOTION_DOT":"0.00146964","EPOCH":"2022-01-31T16:14:18.373056","INCLINATION":"53.0489","MEAN_ELEMENT_THEORY":"SGP4","TIME_SYSTEM":"UTC","PERIOD":"91.308","DECAY_DATE":null,"GP_ID":"195053605","RCS_SIZE":"LARGE","MEAN_MOTION_DDOT":"0.0000000000000","RA_OF_ASC_NODE":"133.0543","APOAPSIS":"339.338","BSTAR":"0.00087255000000","SEMIMAJOR_AXIS":"6716.843","PERIAPSIS":"338.078","LAUNCH_DATE":"2020-11-25","REV_AT_EPOCH":"6680","EPHEMERIS_TYPE":"0","TLE_LINE1":"1 47172U 20088BC  22031.67660154  .00146964  00000-0  87255-3 0  9992"},{"MEAN_ANOMALY":"277.6702","CLASSIFICATION_TYPE":"U","FILE":"3288814","ELEMENT_SET_NO":"999","ARG_OF_PERICENTER":"82.4479","OBJECT_ID":"2020-088BD","REF_FRAME":"TEME","SITE":"AFETR","TLE_LINE2":"2 47173  53.0570 185.8997 0001699  82.4479 277.6702 15.06393079 66073","NORAD_CAT_ID":"47173","CENTER_NAME":"EARTH","OBJECT_NAME":"STARLINK-1890","OBJECT_TYPE":"PAYLOAD","COUNTRY_CODE":"US","MEAN_MOTION_DOT":"0.00000205","EPOCH":"2022-01-31T19:07:24.495456","INCLINATION":"53.0570","MEAN_ELEMENT_THEORY":"SGP4","ECCENTRICITY":"0.00016990","MEAN_MOTION":"15.06393079","GP_ID":"195053853","DECAY_DATE":null,"TIME_SYSTEM":"UTC","PERIOD":"95.593","MEAN_MOTION_DDOT":"0.0000000000000","RA_OF_ASC_NODE":"185.8997","RCS_SIZE":"LARGE","SEMIMAJOR_AXIS":"6925.370","APOAPSIS":"548.411","BSTAR":"0.00003263800000","REV_AT_EPOCH":"6607","EPHEMERIS_TYPE":"0","TLE_LINE1":"1 47173U 20088BD  22031.79681129  .00000205  00000-0  32638-4 0  9994","PERIAPSIS":"546.058","LAUNCH_DATE":"2020-11-25"},{"RCS_SIZE":"LARGE","RA_OF_ASC_NODE":"185.8803","MEAN_MOTION_DDOT":"0.0000000000000","TIME_SYSTEM":"UTC","PERIOD":"95.593","GP_ID":"195053103","DECAY_DATE":null,"LAUNCH_DATE":"2020-11-25","PERIAPSIS":"546.057","EPHEMERIS_TYPE":"0","TLE_LINE1":"1 47174U 20088BE  22031.80788949  .00000213  00000-0  33200-4 0  9990","REV_AT_EPOCH":"6607","BSTAR":"0.00003320000000","APOAPSIS":"548.413","SEMIMAJOR_AXIS":"6925.370","SITE":"AFETR","TLE_LINE2":"2 47174  53.0548 185.8803 0001701  75.2169 284.9008 15.06392982 66077","REF_FRAME":"TEME","ARG_OF_PERICENTER":"75.2169","OBJECT_ID":"2020-088BE","ELEMENT_SET_NO":"999","CLASSIFICATION_TYPE":"U","FILE":"3288814","MEAN_ANOMALY":"284.9008","MEAN_MOTION":"15.06392982","ECCENTRICITY":"0.00017010","EPOCH":"2022-01-31T19:23:21.651936","MEAN_ELEMENT_THEORY":"SGP4","INCLINATION":"53.0548","MEAN_MOTION_DOT":"0.00000213","OBJECT_TYPE":"PAYLOAD","COUNTRY_CODE":"US","CENTER_NAME":"EARTH","OBJECT_NAME":"STARLINK-1891","NORAD_CAT_ID":"47174"},{"COUNTRY_CODE":"US","OBJECT_TYPE":"PAYLOAD","NORAD_CAT_ID":"47175","OBJECT_NAME":"STARLINK-1895","CENTER_NAME":"EARTH","ECCENTRICITY":"0.00017320","MEAN_MOTION":"15.06395915","MEAN_MOTION_DOT":"0.00000587","INCLINATION":"53.0540","MEAN_ELEMENT_THEORY":"SGP4","EPOCH":"2022-01-31T17:45:07.761024","FILE":"3288814","CLASSIFICATION_TYPE":"U","ELEMENT_SET_NO":"999","MEAN_ANOMALY":"280.1461","REF_FRAME":"TEME","TLE_LINE2":"2 47175  53.0540 166.1691 0001732  79.9723 280.1461 15.06395915 66348","SITE":"AFETR","OBJECT_ID":"2020-088BF","ARG_OF_PERICENTER":"79.9723","APOAPSIS":"548.426","BSTAR":"0.00005828300000","SEMIMAJOR_AXIS":"6925.361","PERIAPSIS":"546.027","LAUNCH_DATE":"2020-11-25","REV_AT_EPOCH":"6634","TLE_LINE1":"1 47175U 20088BF  22031.73967316  .00000587  00000-0  58283-4 0  9992","EPHEMERIS_TYPE":"0","PERIOD":"95.592","TIME_SYSTEM":"UTC","GP_ID":"195052854","DECAY_DATE":null,"RCS_SIZE":"LARGE","MEAN_MOTION_DDOT":"0.0000000000000","RA_OF_ASC_NODE":"166.1691"},{"REF_FRAME":"TEME","TLE_LINE2":"2 47177  53.0545 175.6448 0002068  87.0641 273.0585 15.06397053 66222","SITE":"AFETR","OBJECT_ID":"2020-088BH","ARG_OF_PERICENTER":"87.0641","FILE":"3288814","CLASSIFICATION_TYPE":"U","ELEMENT_SET_NO":"999","MEAN_ANOMALY":"273.0585","ECCENTRICITY":"0.00020680","MEAN_MOTION":"15.06397053","MEAN_MOTION_DOT":"-0.00000133","MEAN_ELEMENT_THEORY":"SGP4","INCLINATION":"53.0545","EPOCH":"2022-01-31T20:33:39.300768","COUNTRY_CODE":"US","OBJECT_TYPE":"PAYLOAD","NORAD_CAT_ID":"47177","OBJECT_NAME":"STARLINK-1907","CENTER_NAME":"EARTH","RCS_SIZE":"LARGE","MEAN_MOTION_DDOT":"0.0000000000000","RA_OF_ASC_NODE":"175.6448","PERIOD":"95.592","TIME_SYSTEM":"UTC","DECAY_DATE":null,"GP_ID":"195054105","PERIAPSIS":"545.790","LAUNCH_DATE":"2020-11-25","REV_AT_EPOCH":"6622","TLE_LINE1":"1 47177U 20088BH  22031.85670487 -.00000133  00000-0  99820-5 0  9998","EPHEMERIS_TYPE":"0","APOAPSIS":"548.655","BSTAR":"0.00000998200000","SEMIMAJOR_AXIS":"6925.358"},{"OBJECT_TYPE":"PAYLOAD","COUNTRY_CODE":"US","NORAD_CAT_ID":"47178","CENTER_NAME":"EARTH","OBJECT_NAME":"STARLINK-1912","ECCENTRICITY":"0.00019630","MEAN_MOTION":"15.06401911","MEAN_MOTION_DOT":"0.00000287","EPOCH":"2022-01-31T20:05:46.992480","MEAN_ELEMENT_THEORY":"SGP4","INCLINATION":"53.0546","CLASSIFICATION_TYPE":"U","FILE":"3288814","ELEMENT_SET_NO":"999","MEAN_ANOMALY":"271.9320","REF_FRAME":"TEME","SITE":"AFETR","TLE_LINE2":"2 47178  53.0546 185.7293 0001963  88.1894 271.9320 15.06401911 66075","ARG_OF_PERICENTER":"88.1894","OBJECT_ID":"2020-088BJ","APOAPSIS":"548.567","BSTAR":"0.00003817100000","SEMIMAJOR_AXIS":"6925.343","PERIAPSIS":"545.848","LAUNCH_DATE":"2020-11-25","REV_AT_EPOCH":"6607","EPHEMERIS_TYPE":"0","TLE_LINE1":"1 47178U 20088BJ  22031.83734945  .00000287  00000-0  38171-4 0  9997","TIME_SYSTEM":"UTC","PERIOD":"95.592","DECAY_DATE":null,"GP_ID":"195054353","RCS_SIZE":"LARGE","MEAN_MOTION_DDOT":"0.0000000000000","RA_OF_ASC_NODE":"185.7293"}];
